{
"type": "FeatureCollection",
"name": "Avenue_de_l’Épée_Crossing_uniquewalkshed",
"crs": { "type": "name", "properties": { "name": "urn:ogc:def:crs:OGC:1.3:CRS84" } },
"features": [
{ "type": "Feature", "properties": { "fid": 1020, "ID_TRC": 1130065.0, "DEB_GCH": 6920.0, "FIN_GCH": 7060.0, "ARR_GCH": "Villeray-Saint-Michel-Parc-Extension", "SENS_CIR": -1.0, "CLASSE": 0.0, "LIE_VOIE": "None", "TYP_VOIE": "avenue", "DIR_VOIE": "None", "NOM_VOIE": "Bloomfield", "DEB_DRT": 6915.0, "FIN_DRT": 7067.0, "ARR_DRT": "Villeray-Saint-Michel-Parc-Extension", "LIM_GCH": "Montréal", "LIM_DRT": "Montréal", "POSITION": 5.0, "ODONYME": "Avenue Bloomfield", "crossing_id": 1, "crossing_name": "Avenue de l’Épée Crossing", "network_file": "data/roadnetwork_clipped_pedestrian_Delepeecrossing.geojson", "reachable_nodes": 124, "max_distance": 800 }, "geometry": { "type": "LineString", "coordinates": [ [ -73.623914798089189, 45.527324036958738 ], [ -73.624025814317605, 45.527357026288257 ] ] } },
{ "type": "Feature", "properties": { "fid": 1021, "ID_TRC": 1130066.0, "DEB_GCH": 7202.0, "FIN_GCH": 7234.0, "ARR_GCH": "Villeray-Saint-Michel-Parc-Extension", "SENS_CIR": -1.0, "CLASSE": 0.0, "LIE_VOIE": "None", "TYP_VOIE": "avenue", "DIR_VOIE": "None", "NOM_VOIE": "Bloomfield", "DEB_DRT": 0.0, "FIN_DRT": 0.0, "ARR_DRT": "Villeray-Saint-Michel-Parc-Extension", "LIM_GCH": "Montréal", "LIM_DRT": "Montréal", "POSITION": 5.0, "ODONYME": "Avenue Bloomfield", "crossing_id": 1, "crossing_name": "Avenue de l’Épée Crossing", "network_file": "data/roadnetwork_clipped_pedestrian_Delepeecrossing.geojson", "reachable_nodes": 124, "max_distance": 800 }, "geometry": { "type": "LineString", "coordinates": [ [ -73.624025814317605, 45.527357026288257 ], [ -73.624141976852371, 45.527391644700025 ] ] } },
{ "type": "Feature", "properties": { "fid": 1073, "ID_TRC": 1130172.0, "DEB_GCH": 626.0, "FIN_GCH": 660.0, "ARR_GCH": "Villeray-Saint-Michel-Parc-Extension", "SENS_CIR": 0.0, "CLASSE": 7.0, "LIE_VOIE": "None", "TYP_VOIE": "rue", "DIR_VOIE": "Ouest", "NOM_VOIE": "Jean-Talon", "DEB_DRT": 0.0, "FIN_DRT": 0.0, "ARR_DRT": "Villeray-Saint-Michel-Parc-Extension", "LIM_GCH": "Montréal", "LIM_DRT": "Montréal", "POSITION": 5.0, "ODONYME": "Rue Jean-Talon Ouest", "crossing_id": 1, "crossing_name": "Avenue de l’Épée Crossing", "network_file": "data/roadnetwork_clipped_pedestrian_Delepeecrossing.geojson", "reachable_nodes": 124, "max_distance": 800 }, "geometry": { "type": "LineString", "coordinates": [ [ -73.624025814317605, 45.527357026288257 ], [ -73.623997129355089, 45.527405120765415 ] ] } },
{ "type": "Feature", "properties": { "fid": 1074, "ID_TRC": 1130173.0, "DEB_GCH": 670.0, "FIN_GCH": 700.0, "ARR_GCH": "Villeray-Saint-Michel-Parc-Extension", "SENS_CIR": 0.0, "CLASSE": 7.0, "LIE_VOIE": "None", "TYP_VOIE": "rue", "DIR_VOIE": "Ouest", "NOM_VOIE": "Jean-Talon", "DEB_DRT": 667.0, "FIN_DRT": 717.0, "ARR_DRT": "Villeray-Saint-Michel-Parc-Extension", "LIM_GCH": "Montréal", "LIM_DRT": "Montréal", "POSITION": 5.0, "ODONYME": "Rue Jean-Talon Ouest", "crossing_id": 1, "crossing_name": "Avenue de l’Épée Crossing", "network_file": "data/roadnetwork_clipped_pedestrian_Delepeecrossing.geojson", "reachable_nodes": 124, "max_distance": 800 }, "geometry": { "type": "LineString", "coordinates": [ [ -73.624025814317605, 45.527357026288257 ], [ -73.624055309806977, 45.527307685770793 ] ] } },
{ "type": "Feature", "properties": { "fid": 6296, "ID_TRC": null, "DEB_GCH": null, "FIN_GCH": null, "ARR_GCH": null, "SENS_CIR": null, "CLASSE": null, "LIE_VOIE": null, "TYP_VOIE": null, "DIR_VOIE": null, "NOM_VOIE": null, "DEB_DRT": null, "FIN_DRT": null, "ARR_DRT": null, "LIM_GCH": null, "LIM_DRT": null, "POSITION": null, "ODONYME": null, "crossing_id": 1, "crossing_name": "Avenue de l’Épée Crossing", "network_file": "data/roadnetwork_clipped_pedestrian_Delepeecrossing.geojson", "reachable_nodes": 124, "max_distance": 800 }, "geometry": { "type": "LineString", "coordinates": [ [ -73.618494217313952, 45.526343254268561 ], [ -73.617924486793129, 45.526139149756474 ] ] } },
{ "type": "Feature", "properties": { "fid": 6296, "ID_TRC": null, "DEB_GCH": null, "FIN_GCH": null, "ARR_GCH": null, "SENS_CIR": null, "CLASSE": null, "LIE_VOIE": null, "TYP_VOIE": null, "DIR_VOIE": null, "NOM_VOIE": null, "DEB_DRT": null, "FIN_DRT": null, "ARR_DRT": null, "LIM_GCH": null, "LIM_DRT": null, "POSITION": null, "ODONYME": null, "crossing_id": 1, "crossing_name": "Avenue de l’Épée Crossing", "network_file": "data/roadnetwork_clipped_pedestrian_Delepeecrossing.geojson", "reachable_nodes": 124, "max_distance": 800 }, "geometry": { "type": "LineString", "coordinates": [ [ -73.618511230108666, 45.526347842821238 ], [ -73.618543702438302, 45.526359392568018 ] ] } },
{ "type": "Feature", "properties": { "fid": 1021, "ID_TRC": 1130066.0, "DEB_GCH": 7202.0, "FIN_GCH": 7234.0, "ARR_GCH": "Villeray-Saint-Michel-Parc-Extension", "SENS_CIR": -1.0, "CLASSE": 0.0, "LIE_VOIE": "None", "TYP_VOIE": "avenue", "DIR_VOIE": "None", "NOM_VOIE": "Bloomfield", "DEB_DRT": 0.0, "FIN_DRT": 0.0, "ARR_DRT": "Villeray-Saint-Michel-Parc-Extension", "LIM_GCH": "Montréal", "LIM_DRT": "Montréal", "POSITION": 5.0, "ODONYME": "Avenue Bloomfield", "crossing_id": 1, "crossing_name": "Avenue de l’Épée Crossing", "network_file": "data/roadnetwork_clipped_pedestrian_Delepeecrossing.geojson", "reachable_nodes": 124, "max_distance": 800 }, "geometry": { "type": "LineString", "coordinates": [ [ -73.624141976852371, 45.527391644700025 ], [ -73.624159124680773, 45.52739671558178 ] ] } },
{ "type": "Feature", "properties": { "fid": 1074, "ID_TRC": 1130173.0, "DEB_GCH": 670.0, "FIN_GCH": 700.0, "ARR_GCH": "Villeray-Saint-Michel-Parc-Extension", "SENS_CIR": 0.0, "CLASSE": 7.0, "LIE_VOIE": "None", "TYP_VOIE": "rue", "DIR_VOIE": "Ouest", "NOM_VOIE": "Jean-Talon", "DEB_DRT": 667.0, "FIN_DRT": 717.0, "ARR_DRT": "Villeray-Saint-Michel-Parc-Extension", "LIM_GCH": "Montréal", "LIM_DRT": "Montréal", "POSITION": 5.0, "ODONYME": "Rue Jean-Talon Ouest", "crossing_id": 1, "crossing_name": "Avenue de l’Épée Crossing", "network_file": "data/roadnetwork_clipped_pedestrian_Delepeecrossing.geojson", "reachable_nodes": 124, "max_distance": 800 }, "geometry": { "type": "LineString", "coordinates": [ [ -73.624055309806977, 45.527307685770793 ], [ -73.624081669785497, 45.527263397666204 ] ] } }
]
}
