{
"type": "FeatureCollection",
"name": "Outdoor_Gym_Crossing_uniquewalkshed",
"crs": { "type": "name", "properties": { "name": "urn:ogc:def:crs:OGC:1.3:CRS84" } },
"features": [
{ "type": "Feature", "properties": { "fid": 2826, "ID_TRC": 1240159.0, "DEB_GCH": 0.0, "FIN_GCH": 0.0, "ARR_GCH": "Le Plateau-Mont-Royal", "SENS_CIR": 1.0, "CLASSE": 0.0, "LIE_VOIE": "None", "TYP_VOIE": "avenue", "DIR_VOIE": "None", "NOM_VOIE": "Henri-Julien", "DEB_DRT": 5291.0, "FIN_DRT": 5297.0, "ARR_DRT": "Le Plateau-Mont-Royal", "LIM_GCH": "Montréal", "LIM_DRT": "Montréal", "POSITION": 5.0, "ODONYME": "Avenue Henri-Julien", "crossing_id": 9, "crossing_name": "Outdoor Gym Crossing", "network_file": "data/roadnetwork_clipped_pedestrian_Gymcrossing.geojson", "reachable_nodes": 569, "max_distance": 800 }, "geometry": { "type": "LineString", "coordinates": [ [ -73.59268357960903, 45.526854686598497 ], [ -73.592731616945315, 45.52687700591953 ] ] } },
{ "type": "Feature", "properties": { "fid": 2809, "ID_TRC": 1240134.0, "DEB_GCH": 5200.0, "FIN_GCH": 5254.0, "ARR_GCH": "Le Plateau-Mont-Royal", "SENS_CIR": -1.0, "CLASSE": 0.0, "LIE_VOIE": "None", "TYP_VOIE": "avenue", "DIR_VOIE": "None", "NOM_VOIE": "De Gaspé", "DEB_DRT": 5157.0, "FIN_DRT": 5265.0, "ARR_DRT": "Le Plateau-Mont-Royal", "LIM_GCH": "Montréal", "LIM_DRT": "Montréal", "POSITION": 5.0, "ODONYME": "Avenue De Gaspé", "crossing_id": 9, "crossing_name": "Outdoor Gym Crossing", "network_file": "data/roadnetwork_clipped_pedestrian_Gymcrossing.geojson", "reachable_nodes": 569, "max_distance": 800 }, "geometry": { "type": "LineString", "coordinates": [ [ -73.594147560176651, 45.526153489543141 ], [ -73.594209622090347, 45.526179433611681 ] ] } },
{ "type": "Feature", "properties": { "fid": 2809, "ID_TRC": 1240134.0, "DEB_GCH": 5200.0, "FIN_GCH": 5254.0, "ARR_GCH": "Le Plateau-Mont-Royal", "SENS_CIR": -1.0, "CLASSE": 0.0, "LIE_VOIE": "None", "TYP_VOIE": "avenue", "DIR_VOIE": "None", "NOM_VOIE": "De Gaspé", "DEB_DRT": 5157.0, "FIN_DRT": 5265.0, "ARR_DRT": "Le Plateau-Mont-Royal", "LIM_GCH": "Montréal", "LIM_DRT": "Montréal", "POSITION": 5.0, "ODONYME": "Avenue De Gaspé", "crossing_id": 9, "crossing_name": "Outdoor Gym Crossing", "network_file": "data/roadnetwork_clipped_pedestrian_Gymcrossing.geojson", "reachable_nodes": 569, "max_distance": 800 }, "geometry": { "type": "LineString", "coordinates": [ [ -73.594209622090347, 45.526179433611681 ], [ -73.594275015982205, 45.526207635743077 ] ] } },
{ "type": "Feature", "properties": { "fid": 2810, "ID_TRC": 1240135.0, "DEB_GCH": 5334.0, "FIN_GCH": 5544.0, "ARR_GCH": "Le Plateau-Mont-Royal", "SENS_CIR": -1.0, "CLASSE": 0.0, "LIE_VOIE": "None", "TYP_VOIE": "avenue", "DIR_VOIE": "None", "NOM_VOIE": "De Gaspé", "DEB_DRT": 5345.0, "FIN_DRT": 5455.0, "ARR_DRT": "Le Plateau-Mont-Royal", "LIM_GCH": "Montréal", "LIM_DRT": "Montréal", "POSITION": 5.0, "ODONYME": "Avenue De Gaspé", "crossing_id": 9, "crossing_name": "Outdoor Gym Crossing", "network_file": "data/roadnetwork_clipped_pedestrian_Gymcrossing.geojson", "reachable_nodes": 569, "max_distance": 800 }, "geometry": { "type": "LineString", "coordinates": [ [ -73.594275015982205, 45.526207635743077 ], [ -73.594354390158898, 45.526242308958096 ] ] } },
{ "type": "Feature", "properties": { "fid": 2876, "ID_TRC": 1240228.0, "DEB_GCH": 101.0, "FIN_GCH": 103.0, "ARR_GCH": "Le Plateau-Mont-Royal", "SENS_CIR": 0.0, "CLASSE": 0.0, "LIE_VOIE": "None", "TYP_VOIE": "rue", "DIR_VOIE": "None", "NOM_VOIE": "Maguire", "DEB_DRT": 150.0, "FIN_DRT": 180.0, "ARR_DRT": "Le Plateau-Mont-Royal", "LIM_GCH": "Montréal", "LIM_DRT": "Montréal", "POSITION": 5.0, "ODONYME": "Rue Maguire", "crossing_id": 9, "crossing_name": "Outdoor Gym Crossing", "network_file": "data/roadnetwork_clipped_pedestrian_Gymcrossing.geojson", "reachable_nodes": 569, "max_distance": 800 }, "geometry": { "type": "LineString", "coordinates": [ [ -73.594275015982205, 45.526207635743077 ], [ -73.594321308584256, 45.526160712972562 ] ] } },
{ "type": "Feature", "properties": { "fid": 2877, "ID_TRC": 1240229.0, "DEB_GCH": 225.0, "FIN_GCH": 247.0, "ARR_GCH": "Le Plateau-Mont-Royal", "SENS_CIR": 0.0, "CLASSE": 0.0, "LIE_VOIE": "None", "TYP_VOIE": "rue", "DIR_VOIE": "None", "NOM_VOIE": "Maguire", "DEB_DRT": 216.0, "FIN_DRT": 224.0, "ARR_DRT": "Le Plateau-Mont-Royal", "LIM_GCH": "Montréal", "LIM_DRT": "Montréal", "POSITION": 5.0, "ODONYME": "Rue Maguire", "crossing_id": 9, "crossing_name": "Outdoor Gym Crossing", "network_file": "data/roadnetwork_clipped_pedestrian_Gymcrossing.geojson", "reachable_nodes": 569, "max_distance": 800 }, "geometry": { "type": "LineString", "coordinates": [ [ -73.594275015982205, 45.526207635743077 ], [ -73.594221479669102, 45.526261317089045 ] ] } },
{ "type": "Feature", "properties": { "fid": 6296, "ID_TRC": null, "DEB_GCH": null, "FIN_GCH": null, "ARR_GCH": null, "SENS_CIR": null, "CLASSE": null, "LIE_VOIE": null, "TYP_VOIE": null, "DIR_VOIE": null, "NOM_VOIE": null, "DEB_DRT": null, "FIN_DRT": null, "ARR_DRT": null, "LIM_GCH": null, "LIM_DRT": null, "POSITION": null, "ODONYME": null, "crossing_id": 9, "crossing_name": "Outdoor Gym Crossing", "network_file": "data/roadnetwork_clipped_pedestrian_Gymcrossing.geojson", "reachable_nodes": 569, "max_distance": 800 }, "geometry": { "type": "LineString", "coordinates": [ [ -73.598787715615416, 45.529146636516934 ], [ -73.598803864434956, 45.529177223498948 ] ] } },
{ "type": "Feature", "properties": { "fid": 6296, "ID_TRC": null, "DEB_GCH": null, "FIN_GCH": null, "ARR_GCH": null, "SENS_CIR": null, "CLASSE": null, "LIE_VOIE": null, "TYP_VOIE": null, "DIR_VOIE": null, "NOM_VOIE": null, "DEB_DRT": null, "FIN_DRT": null, "ARR_DRT": null, "LIM_GCH": null, "LIM_DRT": null, "POSITION": null, "ODONYME": null, "crossing_id": 9, "crossing_name": "Outdoor Gym Crossing", "network_file": "data/roadnetwork_clipped_pedestrian_Gymcrossing.geojson", "reachable_nodes": 569, "max_distance": 800 }, "geometry": { "type": "LineString", "coordinates": [ [ -73.59841981339072, 45.528831627661908 ], [ -73.598670940193131, 45.528925455288999 ] ] } },
{ "type": "Feature", "properties": { "fid": 2745, "ID_TRC": 1240029.0, "DEB_GCH": 301.0, "FIN_GCH": 325.0, "ARR_GCH": "Le Plateau-Mont-Royal", "SENS_CIR": -1.0, "CLASSE": 0.0, "LIE_VOIE": "None", "TYP_VOIE": "rue", "DIR_VOIE": "None", "NOM_VOIE": "Boucher", "DEB_DRT": 0.0, "FIN_DRT": 0.0, "ARR_DRT": "Le Plateau-Mont-Royal", "LIM_GCH": "Montréal", "LIM_DRT": "Montréal", "POSITION": 5.0, "ODONYME": "Rue Boucher", "crossing_id": 9, "crossing_name": "Outdoor Gym Crossing", "network_file": "data/roadnetwork_clipped_pedestrian_Gymcrossing.geojson", "reachable_nodes": 569, "max_distance": 800 }, "geometry": { "type": "LineString", "coordinates": [ [ -73.59268357960903, 45.526854686598497 ], [ -73.592666451924103, 45.526875137114061 ] ] } },
{ "type": "Feature", "properties": { "fid": 2825, "ID_TRC": 1240158.0, "DEB_GCH": 5150.0, "FIN_GCH": 5266.0, "ARR_GCH": "Le Plateau-Mont-Royal", "SENS_CIR": 1.0, "CLASSE": 0.0, "LIE_VOIE": "None", "TYP_VOIE": "avenue", "DIR_VOIE": "None", "NOM_VOIE": "Henri-Julien", "DEB_DRT": 5129.0, "FIN_DRT": 5229.0, "ARR_DRT": "Le Plateau-Mont-Royal", "LIM_GCH": "Montréal", "LIM_DRT": "Montréal", "POSITION": 5.0, "ODONYME": "Avenue Henri-Julien", "crossing_id": 9, "crossing_name": "Outdoor Gym Crossing", "network_file": "data/roadnetwork_clipped_pedestrian_Gymcrossing.geojson", "reachable_nodes": 569, "max_distance": 800 }, "geometry": { "type": "LineString", "coordinates": [ [ -73.59268357960903, 45.526854686598497 ], [ -73.592656659490331, 45.526840315716612 ] ] } },
{ "type": "Feature", "properties": { "fid": 2809, "ID_TRC": 1240134.0, "DEB_GCH": 5200.0, "FIN_GCH": 5254.0, "ARR_GCH": "Le Plateau-Mont-Royal", "SENS_CIR": -1.0, "CLASSE": 0.0, "LIE_VOIE": "None", "TYP_VOIE": "avenue", "DIR_VOIE": "None", "NOM_VOIE": "De Gaspé", "DEB_DRT": 5157.0, "FIN_DRT": 5265.0, "ARR_DRT": "Le Plateau-Mont-Royal", "LIM_GCH": "Montréal", "LIM_DRT": "Montréal", "POSITION": 5.0, "ODONYME": "Avenue De Gaspé", "crossing_id": 9, "crossing_name": "Outdoor Gym Crossing", "network_file": "data/roadnetwork_clipped_pedestrian_Gymcrossing.geojson", "reachable_nodes": 569, "max_distance": 800 }, "geometry": { "type": "LineString", "coordinates": [ [ -73.594147560176651, 45.526153489543141 ], [ -73.593999647278721, 45.526085512063219 ] ] } },
{ "type": "Feature", "properties": { "fid": 2876, "ID_TRC": 1240228.0, "DEB_GCH": 101.0, "FIN_GCH": 103.0, "ARR_GCH": "Le Plateau-Mont-Royal", "SENS_CIR": 0.0, "CLASSE": 0.0, "LIE_VOIE": "None", "TYP_VOIE": "rue", "DIR_VOIE": "None", "NOM_VOIE": "Maguire", "DEB_DRT": 150.0, "FIN_DRT": 180.0, "ARR_DRT": "Le Plateau-Mont-Royal", "LIM_GCH": "Montréal", "LIM_DRT": "Montréal", "POSITION": 5.0, "ODONYME": "Rue Maguire", "crossing_id": 9, "crossing_name": "Outdoor Gym Crossing", "network_file": "data/roadnetwork_clipped_pedestrian_Gymcrossing.geojson", "reachable_nodes": 569, "max_distance": 800 }, "geometry": { "type": "LineString", "coordinates": [ [ -73.594321308584256, 45.526160712972562 ], [ -73.594453051198727, 45.526016377904426 ] ] } }
]
}
