{
"type": "FeatureCollection",
"name": "Rue_Cartier_Crossing_uniquewalkshed",
"crs": { "type": "name", "properties": { "name": "urn:ogc:def:crs:OGC:1.3:CRS84" } },
"features": [
{ "type": "Feature", "properties": { "fid": 1526, "ID_TRC": 1160091.0, "DEB_GCH": 5790.0, "FIN_GCH": 5896.0, "ARR_GCH": "Rosemont-La Petite-Patrie", "SENS_CIR": 1.0, "CLASSE": 0.0, "LIE_VOIE": "de", "TYP_VOIE": "rue", "DIR_VOIE": "None", "NOM_VOIE": "Bordeaux", "DEB_DRT": 5797.0, "FIN_DRT": 5873.0, "ARR_DRT": "Rosemont-La Petite-Patrie", "LIM_GCH": "Montréal", "LIM_DRT": "Montréal", "POSITION": 5.0, "ODONYME": "Rue de Bordeaux", "crossing_id": 16, "crossing_name": "Rue Cartier Crossing", "network_file": "data/roadnetwork_clipped_pedestrian_Cartiercrossing.geojson", "reachable_nodes": 361, "max_distance": 800 }, "geometry": { "type": "LineString", "coordinates": [ [ -73.589686315318247, 45.542387213702028 ], [ -73.589788566855503, 45.54243270358868 ] ] } },
{ "type": "Feature", "properties": { "fid": 6296, "ID_TRC": null, "DEB_GCH": null, "FIN_GCH": null, "ARR_GCH": null, "SENS_CIR": null, "CLASSE": null, "LIE_VOIE": null, "TYP_VOIE": null, "DIR_VOIE": null, "NOM_VOIE": null, "DEB_DRT": null, "FIN_DRT": null, "ARR_DRT": null, "LIM_GCH": null, "LIM_DRT": null, "POSITION": null, "ODONYME": null, "crossing_id": 16, "crossing_name": "Rue Cartier Crossing", "network_file": "data/roadnetwork_clipped_pedestrian_Cartiercrossing.geojson", "reachable_nodes": 361, "max_distance": 800 }, "geometry": { "type": "LineString", "coordinates": [ [ -73.585843765240639, 45.539133695263907 ], [ -73.585876924066483, 45.539149323412964 ] ] } },
{ "type": "Feature", "properties": { "fid": 1552, "ID_TRC": 1160132.0, "DEB_GCH": 5750.0, "FIN_GCH": 5898.0, "ARR_GCH": "Rosemont-La Petite-Patrie", "SENS_CIR": -1.0, "CLASSE": 0.0, "LIE_VOIE": "None", "TYP_VOIE": "rue", "DIR_VOIE": "None", "NOM_VOIE": "Chabot", "DEB_DRT": 5773.0, "FIN_DRT": 5895.0, "ARR_DRT": "Rosemont-La Petite-Patrie", "LIM_GCH": "Montréal", "LIM_DRT": "Montréal", "POSITION": 5.0, "ODONYME": "Rue Chabot", "crossing_id": 16, "crossing_name": "Rue Cartier Crossing", "network_file": "data/roadnetwork_clipped_pedestrian_Cartiercrossing.geojson", "reachable_nodes": 361, "max_distance": 800 }, "geometry": { "type": "LineString", "coordinates": [ [ -73.590247439824111, 45.541759255017169 ], [ -73.590338229900667, 45.54180123263415 ] ] } },
{ "type": "Feature", "properties": { "fid": 1553, "ID_TRC": 1160133.0, "DEB_GCH": 5940.0, "FIN_GCH": 5942.0, "ARR_GCH": "Rosemont-La Petite-Patrie", "SENS_CIR": -1.0, "CLASSE": 0.0, "LIE_VOIE": "None", "TYP_VOIE": "rue", "DIR_VOIE": "None", "NOM_VOIE": "Chabot", "DEB_DRT": 5903.0, "FIN_DRT": 6015.0, "ARR_DRT": "Rosemont-La Petite-Patrie", "LIM_GCH": "Montréal", "LIM_DRT": "Montréal", "POSITION": 5.0, "ODONYME": "Rue Chabot", "crossing_id": 16, "crossing_name": "Rue Cartier Crossing", "network_file": "data/roadnetwork_clipped_pedestrian_Cartiercrossing.geojson", "reachable_nodes": 361, "max_distance": 800 }, "geometry": { "type": "LineString", "coordinates": [ [ -73.590338229900667, 45.54180123263415 ], [ -73.590425651255046, 45.541841637005952 ] ] } },
{ "type": "Feature", "properties": { "fid": 1639, "ID_TRC": 1160380.0, "DEB_GCH": 1871.0, "FIN_GCH": 1873.0, "ARR_GCH": "Rosemont-La Petite-Patrie", "SENS_CIR": 0.0, "CLASSE": 6.0, "LIE_VOIE": "None", "TYP_VOIE": "boulevard", "DIR_VOIE": "None", "NOM_VOIE": "Rosemont", "DEB_DRT": 1870.0, "FIN_DRT": 1922.0, "ARR_DRT": "Rosemont-La Petite-Patrie", "LIM_GCH": "Montréal", "LIM_DRT": "Montréal", "POSITION": 5.0, "ODONYME": "Boulevard Rosemont", "crossing_id": 16, "crossing_name": "Rue Cartier Crossing", "network_file": "data/roadnetwork_clipped_pedestrian_Cartiercrossing.geojson", "reachable_nodes": 361, "max_distance": 800 }, "geometry": { "type": "LineString", "coordinates": [ [ -73.590338229900667, 45.54180123263415 ], [ -73.590390739163027, 45.541740333326544 ] ] } },
{ "type": "Feature", "properties": { "fid": 1640, "ID_TRC": 1160381.0, "DEB_GCH": 1951.0, "FIN_GCH": 1999.0, "ARR_GCH": "Rosemont-La Petite-Patrie", "SENS_CIR": 0.0, "CLASSE": 6.0, "LIE_VOIE": "None", "TYP_VOIE": "boulevard", "DIR_VOIE": "None", "NOM_VOIE": "Rosemont", "DEB_DRT": 1950.0, "FIN_DRT": 1988.0, "ARR_DRT": "Rosemont-La Petite-Patrie", "LIM_GCH": "Montréal", "LIM_DRT": "Montréal", "POSITION": 5.0, "ODONYME": "Boulevard Rosemont", "crossing_id": 16, "crossing_name": "Rue Cartier Crossing", "network_file": "data/roadnetwork_clipped_pedestrian_Cartiercrossing.geojson", "reachable_nodes": 361, "max_distance": 800 }, "geometry": { "type": "LineString", "coordinates": [ [ -73.590338229900667, 45.54180123263415 ], [ -73.590276878887593, 45.541872622229633 ] ] } },
{ "type": "Feature", "properties": { "fid": 2499, "ID_TRC": 1230073.0, "DEB_GCH": 5014.0, "FIN_GCH": 5046.0, "ARR_GCH": "Le Plateau-Mont-Royal", "SENS_CIR": 1.0, "CLASSE": 0.0, "LIE_VOIE": "None", "TYP_VOIE": "rue", "DIR_VOIE": "None", "NOM_VOIE": "Cartier", "DEB_DRT": 5001.0, "FIN_DRT": 5021.0, "ARR_DRT": "Le Plateau-Mont-Royal", "LIM_GCH": "Montréal", "LIM_DRT": "Montréal", "POSITION": 5.0, "ODONYME": "Rue Cartier", "crossing_id": 16, "crossing_name": "Rue Cartier Crossing", "network_file": "data/roadnetwork_clipped_pedestrian_Cartiercrossing.geojson", "reachable_nodes": 361, "max_distance": 800 }, "geometry": { "type": "LineString", "coordinates": [ [ -73.579871577065404, 45.536361316094272 ], [ -73.579942665323046, 45.536392697700883 ] ] } },
{ "type": "Feature", "properties": { "fid": 2500, "ID_TRC": 1230074.0, "DEB_GCH": 5106.0, "FIN_GCH": 5342.0, "ARR_GCH": "Le Plateau-Mont-Royal", "SENS_CIR": 1.0, "CLASSE": 0.0, "LIE_VOIE": "None", "TYP_VOIE": "rue", "DIR_VOIE": "None", "NOM_VOIE": "Cartier", "DEB_DRT": 5105.0, "FIN_DRT": 5355.0, "ARR_DRT": "Le Plateau-Mont-Royal", "LIM_GCH": "Montréal", "LIM_DRT": "Montréal", "POSITION": 5.0, "ODONYME": "Rue Cartier", "crossing_id": 16, "crossing_name": "Rue Cartier Crossing", "network_file": "data/roadnetwork_clipped_pedestrian_Cartiercrossing.geojson", "reachable_nodes": 361, "max_distance": 800 }, "geometry": { "type": "LineString", "coordinates": [ [ -73.579942665323046, 45.536392697700883 ], [ -73.58001223643187, 45.536424212376936 ] ] } },
{ "type": "Feature", "properties": { "fid": 2580, "ID_TRC": 1230267.0, "DEB_GCH": 1807.0, "FIN_GCH": 1837.0, "ARR_GCH": "Le Plateau-Mont-Royal", "SENS_CIR": 1.0, "CLASSE": 0.0, "LIE_VOIE": "None", "TYP_VOIE": "avenue", "DIR_VOIE": "Est", "NOM_VOIE": "Laurier", "DEB_DRT": 1800.0, "FIN_DRT": 1846.0, "ARR_DRT": "Le Plateau-Mont-Royal", "LIM_GCH": "Montréal", "LIM_DRT": "Montréal", "POSITION": 5.0, "ODONYME": "Avenue Laurier Est", "crossing_id": 16, "crossing_name": "Rue Cartier Crossing", "network_file": "data/roadnetwork_clipped_pedestrian_Cartiercrossing.geojson", "reachable_nodes": 361, "max_distance": 800 }, "geometry": { "type": "LineString", "coordinates": [ [ -73.579942665323046, 45.536392697700883 ], [ -73.579980557127101, 45.536352780469244 ] ] } },
{ "type": "Feature", "properties": { "fid": 2581, "ID_TRC": 1230268.0, "DEB_GCH": 1871.0, "FIN_GCH": 1911.0, "ARR_GCH": "Le Plateau-Mont-Royal", "SENS_CIR": 1.0, "CLASSE": 0.0, "LIE_VOIE": "None", "TYP_VOIE": "avenue", "DIR_VOIE": "Est", "NOM_VOIE": "Laurier", "DEB_DRT": 1870.0, "FIN_DRT": 1914.0, "ARR_DRT": "Le Plateau-Mont-Royal", "LIM_GCH": "Montréal", "LIM_DRT": "Montréal", "POSITION": 5.0, "ODONYME": "Avenue Laurier Est", "crossing_id": 16, "crossing_name": "Rue Cartier Crossing", "network_file": "data/roadnetwork_clipped_pedestrian_Cartiercrossing.geojson", "reachable_nodes": 361, "max_distance": 800 }, "geometry": { "type": "LineString", "coordinates": [ [ -73.579942665323046, 45.536392697700883 ], [ -73.579903469035386, 45.536433647721061 ] ] } },
{ "type": "Feature", "properties": { "fid": 1527, "ID_TRC": 1160092.0, "DEB_GCH": 5916.0, "FIN_GCH": 6024.0, "ARR_GCH": "Rosemont-La Petite-Patrie", "SENS_CIR": 1.0, "CLASSE": 0.0, "LIE_VOIE": "de", "TYP_VOIE": "rue", "DIR_VOIE": "None", "NOM_VOIE": "Bordeaux", "DEB_DRT": 5905.0, "FIN_DRT": 6029.0, "ARR_DRT": "Rosemont-La Petite-Patrie", "LIM_GCH": "Montréal", "LIM_DRT": "Montréal", "POSITION": 5.0, "ODONYME": "Rue de Bordeaux", "crossing_id": 16, "crossing_name": "Rue Cartier Crossing", "network_file": "data/roadnetwork_clipped_pedestrian_Cartiercrossing.geojson", "reachable_nodes": 361, "max_distance": 800 }, "geometry": { "type": "LineString", "coordinates": [ [ -73.589788566855503, 45.54243270358868 ], [ -73.58984766378066, 45.542459372360717 ] ] } },
{ "type": "Feature", "properties": { "fid": 1640, "ID_TRC": 1160381.0, "DEB_GCH": 1951.0, "FIN_GCH": 1999.0, "ARR_GCH": "Rosemont-La Petite-Patrie", "SENS_CIR": 0.0, "CLASSE": 6.0, "LIE_VOIE": "None", "TYP_VOIE": "boulevard", "DIR_VOIE": "None", "NOM_VOIE": "Rosemont", "DEB_DRT": 1950.0, "FIN_DRT": 1988.0, "ARR_DRT": "Rosemont-La Petite-Patrie", "LIM_GCH": "Montréal", "LIM_DRT": "Montréal", "POSITION": 5.0, "ODONYME": "Boulevard Rosemont", "crossing_id": 16, "crossing_name": "Rue Cartier Crossing", "network_file": "data/roadnetwork_clipped_pedestrian_Cartiercrossing.geojson", "reachable_nodes": 361, "max_distance": 800 }, "geometry": { "type": "LineString", "coordinates": [ [ -73.589788566855503, 45.54243270358868 ], [ -73.589824161241921, 45.542390243015603 ] ] } },
{ "type": "Feature", "properties": { "fid": 1641, "ID_TRC": 1160382.0, "DEB_GCH": 2001.0, "FIN_GCH": 2051.0, "ARR_GCH": "Rosemont-La Petite-Patrie", "SENS_CIR": 0.0, "CLASSE": 6.0, "LIE_VOIE": "None", "TYP_VOIE": "boulevard", "DIR_VOIE": "None", "NOM_VOIE": "Rosemont", "DEB_DRT": 2000.0, "FIN_DRT": 2054.0, "ARR_DRT": "Rosemont-La Petite-Patrie", "LIM_GCH": "Montréal", "LIM_DRT": "Montréal", "POSITION": 5.0, "ODONYME": "Boulevard Rosemont", "crossing_id": 16, "crossing_name": "Rue Cartier Crossing", "network_file": "data/roadnetwork_clipped_pedestrian_Cartiercrossing.geojson", "reachable_nodes": 361, "max_distance": 800 }, "geometry": { "type": "LineString", "coordinates": [ [ -73.589788566855503, 45.54243270358868 ], [ -73.589752476999166, 45.542474958471225 ] ] } },
{ "type": "Feature", "properties": { "fid": 1553, "ID_TRC": 1160133.0, "DEB_GCH": 5940.0, "FIN_GCH": 5942.0, "ARR_GCH": "Rosemont-La Petite-Patrie", "SENS_CIR": -1.0, "CLASSE": 0.0, "LIE_VOIE": "None", "TYP_VOIE": "rue", "DIR_VOIE": "None", "NOM_VOIE": "Chabot", "DEB_DRT": 5903.0, "FIN_DRT": 6015.0, "ARR_DRT": "Rosemont-La Petite-Patrie", "LIM_GCH": "Montréal", "LIM_DRT": "Montréal", "POSITION": 5.0, "ODONYME": "Rue Chabot", "crossing_id": 16, "crossing_name": "Rue Cartier Crossing", "network_file": "data/roadnetwork_clipped_pedestrian_Cartiercrossing.geojson", "reachable_nodes": 361, "max_distance": 800 }, "geometry": { "type": "LineString", "coordinates": [ [ -73.590425651255046, 45.541841637005952 ], [ -73.590858696235898, 45.542044580315952 ] ] } },
{ "type": "Feature", "properties": { "fid": 1640, "ID_TRC": 1160381.0, "DEB_GCH": 1951.0, "FIN_GCH": 1999.0, "ARR_GCH": "Rosemont-La Petite-Patrie", "SENS_CIR": 0.0, "CLASSE": 6.0, "LIE_VOIE": "None", "TYP_VOIE": "boulevard", "DIR_VOIE": "None", "NOM_VOIE": "Rosemont", "DEB_DRT": 1950.0, "FIN_DRT": 1988.0, "ARR_DRT": "Rosemont-La Petite-Patrie", "LIM_GCH": "Montréal", "LIM_DRT": "Montréal", "POSITION": 5.0, "ODONYME": "Boulevard Rosemont", "crossing_id": 16, "crossing_name": "Rue Cartier Crossing", "network_file": "data/roadnetwork_clipped_pedestrian_Cartiercrossing.geojson", "reachable_nodes": 361, "max_distance": 800 }, "geometry": { "type": "LineString", "coordinates": [ [ -73.590276878887593, 45.541872622229633 ], [ -73.590011967104104, 45.542175238732312 ] ] } },
{ "type": "Feature", "properties": { "fid": 2499, "ID_TRC": 1230073.0, "DEB_GCH": 5014.0, "FIN_GCH": 5046.0, "ARR_GCH": "Le Plateau-Mont-Royal", "SENS_CIR": 1.0, "CLASSE": 0.0, "LIE_VOIE": "None", "TYP_VOIE": "rue", "DIR_VOIE": "None", "NOM_VOIE": "Cartier", "DEB_DRT": 5001.0, "FIN_DRT": 5021.0, "ARR_DRT": "Le Plateau-Mont-Royal", "LIM_GCH": "Montréal", "LIM_DRT": "Montréal", "POSITION": 5.0, "ODONYME": "Rue Cartier", "crossing_id": 16, "crossing_name": "Rue Cartier Crossing", "network_file": "data/roadnetwork_clipped_pedestrian_Cartiercrossing.geojson", "reachable_nodes": 361, "max_distance": 800 }, "geometry": { "type": "LineString", "coordinates": [ [ -73.579871577065404, 45.536361316094272 ], [ -73.579708867383488, 45.536285502406351 ] ] } },
{ "type": "Feature", "properties": { "fid": 2580, "ID_TRC": 1230267.0, "DEB_GCH": 1807.0, "FIN_GCH": 1837.0, "ARR_GCH": "Le Plateau-Mont-Royal", "SENS_CIR": 1.0, "CLASSE": 0.0, "LIE_VOIE": "None", "TYP_VOIE": "avenue", "DIR_VOIE": "Est", "NOM_VOIE": "Laurier", "DEB_DRT": 1800.0, "FIN_DRT": 1846.0, "ARR_DRT": "Le Plateau-Mont-Royal", "LIM_GCH": "Montréal", "LIM_DRT": "Montréal", "POSITION": 5.0, "ODONYME": "Avenue Laurier Est", "crossing_id": 16, "crossing_name": "Rue Cartier Crossing", "network_file": "data/roadnetwork_clipped_pedestrian_Cartiercrossing.geojson", "reachable_nodes": 361, "max_distance": 800 }, "geometry": { "type": "LineString", "coordinates": [ [ -73.579980557127101, 45.536352780469244 ], [ -73.580097274108368, 45.536229643588563 ] ] } },
{ "type": "Feature", "properties": { "fid": 2581, "ID_TRC": 1230268.0, "DEB_GCH": 1871.0, "FIN_GCH": 1911.0, "ARR_GCH": "Le Plateau-Mont-Royal", "SENS_CIR": 1.0, "CLASSE": 0.0, "LIE_VOIE": "None", "TYP_VOIE": "avenue", "DIR_VOIE": "Est", "NOM_VOIE": "Laurier", "DEB_DRT": 1870.0, "FIN_DRT": 1914.0, "ARR_DRT": "Le Plateau-Mont-Royal", "LIM_GCH": "Montréal", "LIM_DRT": "Montréal", "POSITION": 5.0, "ODONYME": "Avenue Laurier Est", "crossing_id": 16, "crossing_name": "Rue Cartier Crossing", "network_file": "data/roadnetwork_clipped_pedestrian_Cartiercrossing.geojson", "reachable_nodes": 361, "max_distance": 800 }, "geometry": { "type": "LineString", "coordinates": [ [ -73.579903469035386, 45.536433647721061 ], [ -73.579787249801399, 45.536555374591188 ] ] } }
]
}
