{
"type": "FeatureCollection",
"name": "Skatepark_Crossing_uniquewalkshed",
"crs": { "type": "name", "properties": { "name": "urn:ogc:def:crs:OGC:1.3:CRS84" } },
"features": [
{ "type": "Feature", "properties": { "fid": 12593, "ID_TRC": null, "DEB_GCH": null, "FIN_GCH": null, "ARR_GCH": null, "SENS_CIR": null, "CLASSE": null, "LIE_VOIE": null, "TYP_VOIE": null, "DIR_VOIE": null, "NOM_VOIE": null, "DEB_DRT": null, "FIN_DRT": null, "ARR_DRT": null, "LIM_GCH": null, "LIM_DRT": null, "POSITION": null, "ODONYME": null, "crossing_id": 8, "crossing_name": "Skatepark Crossing", "network_file": "data/roadnetwork_clipped_pedestrian_Skateparkcrossing.geojson", "reachable_nodes": 598, "max_distance": 800 }, "geometry": { "type": "LineString", "coordinates": [ [ -73.601343757878368, 45.528057004282921 ], [ -73.601329424918603, 45.528532280867914 ] ] } },
{ "type": "Feature", "properties": { "fid": 12593, "ID_TRC": null, "DEB_GCH": null, "FIN_GCH": null, "ARR_GCH": null, "SENS_CIR": null, "CLASSE": null, "LIE_VOIE": null, "TYP_VOIE": null, "DIR_VOIE": null, "NOM_VOIE": null, "DEB_DRT": null, "FIN_DRT": null, "ARR_DRT": null, "LIM_GCH": null, "LIM_DRT": null, "POSITION": null, "ODONYME": null, "crossing_id": 8, "crossing_name": "Skatepark Crossing", "network_file": "data/roadnetwork_clipped_pedestrian_Skateparkcrossing.geojson", "reachable_nodes": 598, "max_distance": 800 }, "geometry": { "type": "LineString", "coordinates": [ [ -73.601123466226028, 45.528646506522669 ], [ -73.601093115154782, 45.528663339349208 ] ] } },
{ "type": "Feature", "properties": { "fid": 7506, "ID_TRC": 1140063.0, "DEB_GCH": 351.0, "FIN_GCH": 389.0, "ARR_GCH": "Rosemont-La Petite-Patrie", "SENS_CIR": 0.0, "CLASSE": 5.0, "LIE_VOIE": "de", "TYP_VOIE": "rue", "DIR_VOIE": "None", "NOM_VOIE": "Bellechasse", "DEB_DRT": 0.0, "FIN_DRT": 0.0, "ARR_DRT": "Rosemont-La Petite-Patrie", "LIM_GCH": "Montréal", "LIM_DRT": "Montréal", "POSITION": 5.0, "ODONYME": "Rue de Bellechasse", "crossing_id": 8, "crossing_name": "Skatepark Crossing", "network_file": "data/roadnetwork_clipped_pedestrian_Skateparkcrossing.geojson", "reachable_nodes": 598, "max_distance": 800 }, "geometry": { "type": "LineString", "coordinates": [ [ -73.602596282552113, 45.531814947313258 ], [ -73.602557231923612, 45.531856281571251 ] ] } },
{ "type": "Feature", "properties": { "fid": 7548, "ID_TRC": 1140161.0, "DEB_GCH": 6210.0, "FIN_GCH": 6408.0, "ARR_GCH": "Rosemont-La Petite-Patrie", "SENS_CIR": 0.0, "CLASSE": 0.0, "LIE_VOIE": "None", "TYP_VOIE": "rue", "DIR_VOIE": "None", "NOM_VOIE": "Drolet", "DEB_DRT": 6215.0, "FIN_DRT": 6411.0, "ARR_DRT": "Rosemont-La Petite-Patrie", "LIM_GCH": "Montréal", "LIM_DRT": "Montréal", "POSITION": 5.0, "ODONYME": "Rue Drolet", "crossing_id": 8, "crossing_name": "Skatepark Crossing", "network_file": "data/roadnetwork_clipped_pedestrian_Skateparkcrossing.geojson", "reachable_nodes": 598, "max_distance": 800 }, "geometry": { "type": "LineString", "coordinates": [ [ -73.602596282552113, 45.531814947313258 ], [ -73.602655450435336, 45.531842130347428 ] ] } }
]
}
